[{"OBJECT_NAME":"SL-8 R/B","OBJECT_ID":"1979-089B","EPOCH":"2026-03-31T04:15:33.719040","MEAN_MOTION":14.42364855,"ECCENTRICITY":0.00166824,"INCLINATION":74.0692,"RA_OF_ASC_NODE":51.2636,"ARG_OF_PERICENTER":221.1138,"MEAN_ANOMALY":138.8763,"EPHEMERIS_TYPE":0,"CLASSIFICATION_TYPE":"U","NORAD_CAT_ID":11574,"ELEMENT_SET_NO":999,"REV_AT_EPOCH":43920,"BSTAR":0.00014518512,"MEAN_MOTION_DOT":4.54e-6,"MEAN_MOTION_DDOT":0},{"OBJECT_NAME":"SL-14 R/B","OBJECT_ID":"1980-005B","EPOCH":"2026-03-31T06:30:21.615264","MEAN_MOTION":14.90955515,"ECCENTRICITY":0.00172569,"INCLINATION":82.5109,"RA_OF_ASC_NODE":286.7592,"ARG_OF_PERICENTER":91.4015,"MEAN_ANOMALY":268.9181,"EPHEMERIS_TYPE":0,"CLASSIFICATION_TYPE":"U","NORAD_CAT_ID":11672,"ELEMENT_SET_NO":999,"REV_AT_EPOCH":47970,"BSTAR":7.6291373e-5,"MEAN_MOTION_DOT":7.81e-6,"MEAN_MOTION_DDOT":0},{"OBJECT_NAME":"SL-8 R/B","OBJECT_ID":"1981-003B","EPOCH":"2026-03-30T23:42:53.733024","MEAN_MOTION":15.11933702,"ECCENTRICITY":0.02605827,"INCLINATION":82.9324,"RA_OF_ASC_NODE":270.3139,"ARG_OF_PERICENTER":104.5804,"MEAN_ANOMALY":258.4479,"EPHEMERIS_TYPE":0,"CLASSIFICATION_TYPE":"U","NORAD_CAT_ID":12139,"ELEMENT_SET_NO":999,"REV_AT_EPOCH":31789,"BSTAR":0.00071677645,"MEAN_MOTION_DOT":0.00028699,"MEAN_MOTION_DDOT":0},{"OBJECT_NAME":"SL-3 R/B","OBJECT_ID":"1981-046B","EPOCH":"2026-03-31T06:14:16.558368","MEAN_MOTION":15.42529951,"ECCENTRICITY":0.00181525,"INCLINATION":81.228,"RA_OF_ASC_NODE":263.8273,"ARG_OF_PERICENTER":305.6723,"MEAN_ANOMALY":54.283,"EPHEMERIS_TYPE":0,"CLASSIFICATION_TYPE":"U","NORAD_CAT_ID":12465,"ELEMENT_SET_NO":999,"REV_AT_EPOCH":44175,"BSTAR":0.0003249589,"MEAN_MOTION_DOT":0.00014217,"MEAN_MOTION_DDOT":0},{"OBJECT_NAME":"SL-3 R/B","OBJECT_ID":"1981-103B","EPOCH":"2026-03-31T06:39:28.726848","MEAN_MOTION":15.21635505,"ECCENTRICITY":0.00129035,"INCLINATION":81.1614,"RA_OF_ASC_NODE":188.1083,"ARG_OF_PERICENTER":209.2567,"MEAN_ANOMALY":150.7944,"EPHEMERIS_TYPE":0,"CLASSIFICATION_TYPE":"U","NORAD_CAT_ID":12904,"ELEMENT_SET_NO":999,"REV_AT_EPOCH":97651,"BSTAR":0.0003268485,"MEAN_MOTION_DOT":7.424e-5,"MEAN_MOTION_DDOT":0},{"OBJECT_NAME":"SL-3 R/B","OBJECT_ID":"1982-013B","EPOCH":"2026-03-31T05:04:01.958592","MEAN_MOTION":15.22208434,"ECCENTRICITY":0.0023625,"INCLINATION":81.1731,"RA_OF_ASC_NODE":135.5435,"ARG_OF_PERICENTER":106.9616,"MEAN_ANOMALY":253.4208,"EPHEMERIS_TYPE":0,"CLASSIFICATION_TYPE":"U","NORAD_CAT_ID":13068,"ELEMENT_SET_NO":999,"REV_AT_EPOCH":40762,"BSTAR":0.00022928828,"MEAN_MOTION_DOT":5.332e-5,"MEAN_MOTION_DDOT":0},{"OBJECT_NAME":"SL-3 R/B","OBJECT_ID":"1982-039B","EPOCH":"2026-03-31T06:10:33.863232","MEAN_MOTION":15.10203787,"ECCENTRICITY":0.00284574,"INCLINATION":81.1567,"RA_OF_ASC_NODE":191.0928,"ARG_OF_PERICENTER":252.8956,"MEAN_ANOMALY":106.9152,"EPHEMERIS_TYPE":0,"CLASSIFICATION_TYPE":"U","NORAD_CAT_ID":13154,"ELEMENT_SET_NO":999,"REV_AT_EPOCH":38489,"BSTAR":0.00021757532,"MEAN_MOTION_DOT":3.61e-5,"MEAN_MOTION_DDOT":0},{"OBJECT_NAME":"SL-3 R/B","OBJECT_ID":"1982-079B","EPOCH":"2026-03-31T04:32:21.707232","MEAN_MOTION":15.2508677,"ECCENTRICITY":0.00254841,"INCLINATION":81.1485,"RA_OF_ASC_NODE":167.6916,"ARG_OF_PERICENTER":94.1664,"MEAN_ANOMALY":266.2483,"EPHEMERIS_TYPE":0,"CLASSIFICATION_TYPE":"U","NORAD_CAT_ID":13403,"ELEMENT_SET_NO":999,"REV_AT_EPOCH":38097,"BSTAR":0.0002488923,"MEAN_MOTION_DOT":6.31e-5,"MEAN_MOTION_DDOT":0},{"OBJECT_NAME":"SL-14 R/B","OBJECT_ID":"1982-092B","EPOCH":"2026-03-31T04:23:22.740576","MEAN_MOTION":14.86686077,"ECCENTRICITY":0.0019172,"INCLINATION":82.5655,"RA_OF_ASC_NODE":121.2923,"ARG_OF_PERICENTER":226.835,"MEAN_ANOMALY":202.2632,"EPHEMERIS_TYPE":0,"CLASSIFICATION_TYPE":"U","NORAD_CAT_ID":13553,"ELEMENT_SET_NO":999,"REV_AT_EPOCH":33212,"BSTAR":6.2312669e-5,"MEAN_MOTION_DOT":5.8e-6,"MEAN_MOTION_DDOT":0},{"OBJECT_NAME":"SL-3 R/B","OBJECT_ID":"1983-010B","EPOCH":"2026-03-31T04:11:12.427296","MEAN_MOTION":15.47083831,"ECCENTRICITY":0.00157552,"INCLINATION":81.1052,"RA_OF_ASC_NODE":335.8952,"ARG_OF_PERICENTER":337.2346,"MEAN_ANOMALY":22.8198,"EPHEMERIS_TYPE":0,"CLASSIFICATION_TYPE":"U","NORAD_CAT_ID":13819,"ELEMENT_SET_NO":999,"REV_AT_EPOCH":36126,"BSTAR":0.00033668614,"MEAN_MOTION_DOT":0.00017169,"MEAN_MOTION_DDOT":0},{"OBJECT_NAME":"SL-3 R/B","OBJECT_ID":"1983-075B","EPOCH":"2026-03-31T05:06:56.496960","MEAN_MOTION":15.38930649,"ECCENTRICITY":0.0022494,"INCLINATION":97.6133,"RA_OF_ASC_NODE":95.6136,"ARG_OF_PERICENTER":148.377,"MEAN_ANOMALY":211.8832,"EPHEMERIS_TYPE":0,"CLASSIFICATION_TYPE":"U","NORAD_CAT_ID":14208,"ELEMENT_SET_NO":999,"REV_AT_EPOCH":33346,"BSTAR":0.00034616714,"MEAN_MOTION_DOT":0.00013371,"MEAN_MOTION_DDOT":0},{"OBJECT_NAME":"COSMOS 1536","OBJECT_ID":"1984-013A","EPOCH":"2026-03-31T06:09:20.202048","MEAN_MOTION":15.24123625,"ECCENTRICITY":0.00136554,"INCLINATION":82.5411,"RA_OF_ASC_NODE":86.4008,"ARG_OF_PERICENTER":198.8776,"MEAN_ANOMALY":161.1957,"EPHEMERIS_TYPE":0,"CLASSIFICATION_TYPE":"U","NORAD_CAT_ID":14699,"ELEMENT_SET_NO":999,"REV_AT_EPOCH":27590,"BSTAR":0.00037227642,"MEAN_MOTION_DOT":9.104e-5,"MEAN_MOTION_DDOT":0},{"OBJECT_NAME":"SL-14 R/B","OBJECT_ID":"1984-027B","EPOCH":"2026-03-31T07:23:57.174432","MEAN_MOTION":14.86000124,"ECCENTRICITY":0.00164896,"INCLINATION":82.5422,"RA_OF_ASC_NODE":224.7358,"ARG_OF_PERICENTER":261.1563,"MEAN_ANOMALY":98.7786,"EPHEMERIS_TYPE":0,"CLASSIFICATION_TYPE":"U","NORAD_CAT_ID":14820,"ELEMENT_SET_NO":999,"REV_AT_EPOCH":25084,"BSTAR":8.1402521e-5,"MEAN_MOTION_DOT":7.37e-6,"MEAN_MOTION_DDOT":0},{"OBJECT_NAME":"SL-8 R/B","OBJECT_ID":"1985-006B","EPOCH":"2026-03-30T19:40:24.235680","MEAN_MOTION":14.37798599,"ECCENTRICITY":0.00176029,"INCLINATION":74.0455,"RA_OF_ASC_NODE":222.2648,"ARG_OF_PERICENTER":133.9281,"MEAN_ANOMALY":337.2974,"EPHEMERIS_TYPE":0,"CLASSIFICATION_TYPE":"U","NORAD_CAT_ID":15483,"ELEMENT_SET_NO":999,"REV_AT_EPOCH":15706,"BSTAR":0.00013042731,"MEAN_MOTION_DOT":3.67e-6,"MEAN_MOTION_DDOT":0},{"OBJECT_NAME":"SL-12 R/B(2)","OBJECT_ID":"1985-042D","EPOCH":"2026-03-31T07:23:30.312672","MEAN_MOTION":14.21988631,"ECCENTRICITY":0.00328524,"INCLINATION":71.1093,"RA_OF_ASC_NODE":42.0527,"ARG_OF_PERICENTER":92.2715,"MEAN_ANOMALY":59.5144,"EPHEMERIS_TYPE":0,"CLASSIFICATION_TYPE":"U","NORAD_CAT_ID":15772,"ELEMENT_SET_NO":999,"REV_AT_EPOCH":11746,"BSTAR":6.3875196e-5,"MEAN_MOTION_DOT":9.4e-7,"MEAN_MOTION_DDOT":0},{"OBJECT_NAME":"SL-14 R/B","OBJECT_ID":"1985-069B","EPOCH":"2026-03-31T05:15:37.404288","MEAN_MOTION":14.86456742,"ECCENTRICITY":0.00201448,"INCLINATION":82.5305,"RA_OF_ASC_NODE":4.6942,"ARG_OF_PERICENTER":118.7356,"MEAN_ANOMALY":241.5888,"EPHEMERIS_TYPE":0,"CLASSIFICATION_TYPE":"U","NORAD_CAT_ID":15945,"ELEMENT_SET_NO":999,"REV_AT_EPOCH":17603,"BSTAR":6.9335146e-5,"MEAN_MOTION_DOT":6.39e-6,"MEAN_MOTION_DDOT":0},{"OBJECT_NAME":"SL-16 R/B","OBJECT_ID":"1985-097B","EPOCH":"2026-03-31T07:14:32.652384","MEAN_MOTION":14.16603306,"ECCENTRICITY":0.00093867,"INCLINATION":71.0007,"RA_OF_ASC_NODE":95.052,"ARG_OF_PERICENTER":234.5073,"MEAN_ANOMALY":136.387,"EPHEMERIS_TYPE":0,"CLASSIFICATION_TYPE":"U","NORAD_CAT_ID":16182,"ELEMENT_SET_NO":999,"REV_AT_EPOCH":9029,"BSTAR":-5.3828672e-5,"MEAN_MOTION_DOT":-1.55e-6,"MEAN_MOTION_DDOT":0}]
